STARLINK-37301          
1 68954U 26099D   26132.83335648  .00090885  00000+0  46103-3 0  9998
2 68954  53.1595 331.7160 0000788  73.4407 270.5158 15.80785182  2983
