{
  "norad_id": 68954,
  "name": "STARLINK-37301",
  "history": [
    {
      "epoch": "2026-05-12T20:00:01.999008Z",
      "apogee_km": 328.7474613813283,
      "perigee_km": 327.6905396756447,
      "latitude_deg": -12.940910261562452,
      "longitude_deg": 151.2488858123936,
      "height_km": 331.7003279475601,
      "semi_major_axis_km": 6706.356000528486,
      "eccentricity": 7.88e-05,
      "inclination_deg": 53.1595,
      "raan_deg": 331.716,
      "arg_perigee_deg": 73.4407,
      "mean_anomaly_deg": 270.5158,
      "mean_motion_rev_day": 15.80785182
    }
  ]
}